GPS BIIA-23 (PRN 18)    
1 22877U 93068A   18215.43527365 -.00000035  00000-0  00000+0 0  9992
2 22877  54.4572  81.5646 0146374  76.0307 239.1910  2.00567719181498
GPS BIIR-2  (PRN 13)    
1 24876U 97035A   18215.39158518  .00000091  00000-0  00000+0 0  9997
2 24876  55.4861 210.9151 0030677  86.3861 273.9754  2.00564590154099
GPS BIIR-3  (PRN 11)    
1 25933U 99055A   18215.43544003 -.00000045  00000-0  00000+0 0  9999
2 25933  51.9204  59.6313 0167961 102.8919 215.2319  2.00566129137917
GPS BIIR-4  (PRN 20)    
1 26360U 00025A   18215.29965486  .00000005  00000-0  00000+0 0  9994
2 26360  53.2144 137.7027 0038799 119.8677 147.1493  2.00563360133607
GPS BIIR-5  (PRN 28)    
1 26407U 00040A   18215.46112834 -.00000057  00000-0  00000+0 0  9991
2 26407  56.4544 329.0485 0197239 272.9598  88.8144  2.00562767132287
GPS BIIR-6  (PRN 14)    
1 26605U 00071A   18215.34614122  .00000089  00000-0  00000+0 0  9993
2 26605  55.0596 208.4900 0102823 249.0324 295.7793  2.00570687129878
GPS BIIR-8  (PRN 16)    
1 27663U 03005A   18215.38646792 -.00000057  00000-0  00000+0 0  9996
2 27663  56.5182 328.8111 0098618  28.8956  39.0937  2.00564108113649
GPS BIIR-9  (PRN 21)    
1 27704U 03010A   18215.07622272 -.00000036  00000-0  00000+0 0  9998
2 27704  54.1281  81.1504 0245481 271.8449 251.5035  2.00565278112438
GPS BIIR-10 (PRN 22)    
1 28129U 03058A   18214.09023324  .00000012  00000-0  00000+0 0  9999
2 28129  53.0273 140.5991 0074535 273.8497  85.3076  2.00553903107113
GPS BIIR-11 (PRN 19)    
1 28190U 04009A   18215.42244865 -.00000044  00000-0  00000+0 0  9993
2 28190  56.1904  29.6421 0096023  71.0468 169.3810  2.00558530105313
GPS BIIR-12 (PRN 23)    
1 28361U 04023A   18215.50364691  .00000086  00000-0  00000+0 0  9993
2 28361  54.0616 203.1764 0128260 226.7800 348.8124  2.00553540103403
GPS BIIR-13 (PRN 02)    
1 28474U 04045A   18215.45572668 -.00000035  00000-0  00000+0 0  9996
2 28474  54.4956  80.7666 0181587 254.7161 285.5276  2.00550404100768
GPS BIIRM-1 (PRN 17)    
1 28874U 05038A   18215.55793644 -.00000044  00000-0  00000+0 0  9993
2 28874  56.3296  26.9527 0126503 258.3041 104.3856  2.00573410 94173
GPS BIIRM-2 (PRN 31)    
1 29486U 06042A   18215.25504267  .00000028  00000-0  00000+0 0  9998
2 29486  55.1539 265.7828 0088210 351.4209  75.9168  2.00559368 86884
GPS BIIRM-3 (PRN 12)    
1 29601U 06052A   18214.60389619 -.00000056  00000-0  00000-0 0  9991
2 29601  56.4950 327.7583 0069129  56.8179 303.8713  2.00578662 85731
GPS BIIRM-4 (PRN 15)    
1 32260U 07047A   18214.92882321  .00000079  00000-0  00000+0 0  9997
2 32260  53.1860 199.1797 0103034  38.6494 322.0756  2.00549762 79170
GPS BIIRM-5 (PRN 29)    
1 32384U 07062A   18215.23452035 -.00000045  00000-0  00000+0 0  9995
2 32384  56.4045  27.5782 0006107  81.1730 276.1429  2.00566328 77907
GPS BIIRM-6 (PRN 07)    
1 32711U 08012A   18215.33516061  .00000030  00000-0  00000+0 0  9999
2 32711  54.8886 265.0468 0121127 217.2637 141.9646  2.00566364 76093
GPS BIIRM-8 (PRN 05)    
1 35752U 09043A   18214.68548573  .00000015  00000-0  00000-0 0  9996
2 35752  54.3304 142.8262 0053968  35.0963 244.1538  2.00553747 65680
GPS BIIF-1  (PRN 25)    
1 36585U 10022A   18215.25137372 -.00000056  00000-0  00000+0 0  9990
2 36585  55.7835 324.2613 0072773  48.7430  23.9827  2.00571024 59922
GPS BIIF-2  (PRN 01)    
1 37753U 11036A   18215.50465674 -.00000032  00000-0  00000+0 0  9995
2 37753  55.6942  84.3482 0078994  37.1618 304.2635  2.00564567 51611
GPS BIIF-3  (PRN 24)    
1 38833U 12053A   18215.01690062  .00000032  00000-0  00000+0 0  9991
2 38833  53.9196 261.5706 0069387  29.0232 331.4350  2.00567621 42675
GPS BIIF-4  (PRN 27)    
1 39166U 13023A   18215.37483041 -.00000047  00000-0  00000+0 0  9992
2 39166  56.0249  23.8408 0059196  24.0808 336.2217  2.00562173 38214
GPS BIIF-5  (PRN 30)    
1 39533U 14008A   18214.87631607  .00000022  00000-0  00000+0 0  9993
2 39533  54.0622 266.9330 0036432 191.2856 168.7082  2.00559367 32568
GPS BIIF-6  (PRN 06)    
1 39741U 14026A   18215.15376603 -.00000032  00000-0  00000+0 0  9990
2 39741  55.6771  83.8852 0012218 294.2280  65.7199  2.00563823 30854
GPS BIIF-7  (PRN 09)    
1 40105U 14045A   18215.24358161  .00000086  00000-0  00000+0 0  9994
2 40105  54.5877 203.3169 0006893 108.4221 251.6524  2.00575056 29305
GPS BIIF-8  (PRN 03)    
1 40294U 14068A   18215.11924108  .00000017  00000-0  00000+0 0  9998
2 40294  55.0818 144.1121 0014964  22.8579 337.2145  2.00559455 27525
GPS BIIF-9  (PRN 26)    
1 40534U 15013A   18215.25349142 -.00000056  00000-0  00000+0 0  9994
2 40534  54.7228 322.9337 0027927   0.8991 359.1404  2.00560842 24592
GPS BIIF-10  (PRN 08)   
1 40730U 15033A   18214.91659422 -.00000050  00000-0  00000+0 0  9995
2 40730  55.5544  23.3437 0035547 333.6854  26.1599  2.00572000 22341
GPS BIIF-11  (PRN 10)   
1 41019U 15062A   18214.96770985  .00000017  00000-0  00000+0 0  9993
2 41019  55.0863 143.9225 0037585 204.5927 155.2344  2.00564375 20162
GPS BIIF-12  (PRN 32)   
1 41328U 16007A   18215.05559156  .00000086  00000-0  00000+0 0  9998
2 41328  54.8374 203.6275 0024325 219.7825 140.0385  2.00561394 18220
